OBJECT_NAME,OBJECT_ID,EPOCH,MEAN_MOTION,ECCENTRICITY,INCLINATION,RA_OF_ASC_NODE,ARG_OF_PERICENTER,MEAN_ANOMALY,EPHEMERIS_TYPE,CLASSIFICATION_TYPE,NORAD_CAT_ID,ELEMENT_SET_NO,REV_AT_EPOCH,BSTAR,MEAN_MOTION_DOT,MEAN_MOTION_DDOT
SCD 1,1993-009B,2026-07-12T23:46:28.062912,14.46128066,.00420176,24.9704,48.2532,51.2320,94.1420,0,U,22490,999,76485,.28089203E-4,.288E-5,0
TECHSAT 1B (GO-32),1998-043D,2026-07-12T21:55:49.712448,14.24433105,.00021307,99.0083,187.3229,118.0072,242.1321,0,U,25397,999,45499,.29957615E-4,.23E-6,0
SCD 2,1998-060A,2026-07-13T06:10:19.471584,14.45534476,.00169388,24.9949,271.3892,39.2969,355.5778,0,U,25504,999,46410,.29640055E-4,.288E-5,0
DLR-TUBSAT,1999-029B,2026-07-12T22:05:35.837952,14.52433002,.00129616,98.6709,190.2728,272.2732,87.6978,0,U,25757,999,43698,.16059054E-4,.17E-6,0
TERRA,1999-068A,2026-07-13T05:58:12.184032,14.61122807,.00033318,97.9443,242.7599,126.7557,308.3345,0,U,25994,999,41341,.50029527E-4,.202E-5,0
MAROC-TUBSAT,2001-056D,2026-07-13T07:14:10.154688,13.70263495,.00206138,99.8096,11.6549,76.7680,50.9735,0,U,27004,999,22976,.19773879E-4,-.29E-6,0
AQUA,2002-022A,2026-07-13T06:31:00.960960,14.62195432,.00008822,98.4294,164.0786,109.6165,354.0459,0,U,27424,999,28708,.84879045E-4,.378E-5,0
SHIYAN-1 (SY-1),2004-012A,2026-07-13T05:01:03.027648,15.34420203,.000407,97.8692,273.9793,284.5782,75.5008,0,U,28220,999,21508,.25047095E-3,.8263E-4,0
AURA,2004-026A,2026-07-13T05:02:49.435296,14.61366102,.00012892,98.3430,150.8815,92.4459,267.6889,0,U,28376,999,17001,.84209484E-4,.368E-5,0
IRS-P5 (CARTOSAT-1),2005-017A,2026-07-12T15:30:21.381120,14.91113249,.00015262,97.5306,215.5555,56.0467,304.0897,0,U,28649,999,14761,.62268534E-4,.565E-5,0
SINAH 1,2005-043D,2026-07-13T07:06:40.251744,14.64174795,.00142589,98.2890,328.7765,189.4985,170.5949,0,U,28893,999,10434,.35864598E-4,.139E-5,0
RESURS-DK 1,2006-021A,2026-07-13T05:04:21.530784,15.13315244,.00069775,69.9309,272.1825,273.2712,86.7656,0,U,29228,999,10651,.62348319E-4,.1004E-4,0
ARIRANG-2 (KOMPSAT-2),2006-031A,2026-07-13T06:16:17.232384,14.64674718,.00144463,97.8311,17.4474,357.0497,108.3077,0,U,29268,999,6529,.20314715E-4,.63E-6,0
LAPAN-TUBSAT,2007-001A,2026-07-13T05:55:06.845664,14.85976842,.00136217,98.1350,194.0593,99.2179,261.0577,0,U,29709,999,5502,.40523862E-4,.297E-5,0
HAIYANG-1B,2007-010A,2026-07-12T22:41:14.406432,14.31032985,.00145827,98.3513,174.7935,122.0038,238.2565,0,U,31113,999,432,.28228245E-4,.33E-6,0
COSMO-SKYMED 1,2007-023A,2026-07-13T06:24:50.327424,14.97213794,.00012609,97.8844,26.3437,103.3433,256.7929,0,U,31598,999,3369,.12204938E-3,.1352E-4,0
TERRASAR-X,2007-026A,2026-07-07T11:29:59.023968,15.19153986,.0001878,97.4461,195.8972,86.9540,273.1909,0,U,31698,999,5630,.14624E-4,.24E-5,0
WORLDVIEW-1 (WV-1),2007-041A,2026-07-13T06:51:51.618240,15.24545847,.00013483,97.3901,313.6626,215.1464,144.9685,0,U,32060,999,4685,.14610817E-3,.3525E-4,0
YAOGAN-3,2007-055A,2026-07-13T07:16:53.957856,14.90878059,.00016126,97.8149,223.9228,82.2494,277.8907,0,U,32289,999,976,.17883492E-3,.1707E-4,0
COSMO-SKYMED 2,2007-059A,2026-07-13T06:54:09.847872,14.82149633,.00014268,97.8892,17.5078,93.8494,266.2883,0,U,32376,999,587,.3196418E-4,.202E-5,0
RADARSAT-2,2007-061A,2026-07-13T06:38:43.224288,14.29983718,.00013367,98.5781,200.8367,83.7691,276.3643,0,U,32382,999,96968,.11832784E-3,.262E-5,0
CARTOSAT-2A,2008-021A,2026-07-13T07:00:20.656800,14.79274638,.00126225,97.7626,242.1076,32.9312,327.2684,0,U,32783,999,98266,.48552198E-4,.311E-5,0
HUANJING 1A (HJ-1A),2008-041A,2026-07-13T06:14:44.778336,14.84048776,.00204902,97.6691,179.0925,55.5703,304.7445,0,U,33320,999,96227,.16771241E-3,.1351E-4,0
HUANJING 1B (HJ-1B),2008-041B,2026-07-13T07:24:35.277696,14.83362086,.00379027,97.6527,182.2313,97.0983,263.4543,0,U,33321,999,96228,.53655341E-4,.393E-5,0
GEOEYE 1,2008-042A,2026-07-13T05:57:42.985152,14.64648473,.00040782,98.1328,267.8671,353.3329,6.7819,0,U,33331,999,95396,.4613176E-4,.198E-5,0
THEOS,2008-049A,2026-07-13T07:39:47.507040,14.20135746,.00011487,98.5566,250.7527,87.5955,272.5354,0,U,33396,999,92167,-.9415561E-4,-.243E-5,0
COSMO-SKYMED 3,2008-054A,2026-07-13T05:41:39.586272,15.07102996,.00156826,97.8253,53.2396,172.9355,187.2096,0,U,33412,999,96086,.91605919E-4,.1312E-4,0
YAOGAN-4,2008-061A,2026-07-13T06:35:40.809696,14.83249248,.00140046,97.9304,127.5933,352.0166,8.0823,0,U,33446,999,94953,.67710403E-4,.5E-5,0
GOSAT (IBUKI),2009-002A,2026-07-13T07:41:15.401760,14.67538398,.0001134,98.0913,305.0769,91.0437,269.0898,0,U,33492,999,93529,.68025958E-4,.338E-5,0
DEIMOS-1,2009-041A,2026-07-13T07:11:19.684032,14.75262549,.00027726,97.7425,350.3993,94.9950,265.1577,0,U,35681,999,91073,.26571383E-4,.132E-5,0
