SCD 1                   
1 22490U 93009B   26193.99060258  .00000288  00000+0  28089-4 0  9996
2 22490  24.9704  48.2532 0042017  51.2320  94.1420 14.46128066764854
TECHSAT 1B (GO-32)      
1 25397U 98043D   26193.91376982  .00000023  00000+0  29958-4 0  9997
2 25397  99.0083 187.3229 0002130 118.0072 242.1321 14.24433105454997
SCD 2                   
1 25504U 98060A   26194.25716981  .00000288  00000+0  29640-4 0  9992
2 25504  24.9949 271.3892 0016938  39.2969 355.5778 14.45534476464100
DLR-TUBSAT              
1 25757U 99029B   26193.92055368  .00000017  00000+0  16059-4 0  9996
2 25757  98.6709 190.2728 0012961 272.2732  87.6978 14.52433002436989
TERRA                   
1 25994U 99068A   26194.24875213  .00000202  00000+0  50030-4 0  9990
2 25994  97.9443 242.7599 0003331 126.7557 308.3345 14.61122807413419
MAROC-TUBSAT            
1 27004U 01056D   26194.30150642 -.00000029  00000+0  19774-4 0  9991
2 27004  99.8096  11.6549 0020613  76.7680  50.9735 13.70263495229763
AQUA                    
1 27424U 02022A   26194.27153890  .00000378  00000+0  84879-4 0  9999
2 27424  98.4294 164.0786 0000882 109.6165 354.0459 14.62195432287087
SHIYAN-1 (SY-1)         
1 28220U 04012A   26194.20906282  .00008263  00000+0  25047-3 0  9991
2 28220  97.8692 273.9793 0004070 284.5782  75.5008 15.34420203215089
AURA                    
1 28376U 04026A   26194.21029439  .00000368  00000+0  84209-4 0  9993
2 28376  98.3430 150.8815 0001289  92.4459 267.6889 14.61366102170011
IRS-P5 (CARTOSAT-1)     
1 28649U 05017A   26193.64608080  .00000565  00000+0  62269-4 0  9999
2 28649  97.5306 215.5555 0001526  56.0467 304.0897 14.91113249147616
SINAH 1                 
1 28893U 05043D   26194.29629921  .00000139  00000+0  35865-4 0  9997
2 28893  98.2890 328.7765 0014258 189.4985 170.5949 14.64174795104345
RESURS-DK 1             
1 29228U 06021A   26194.21136031  .00001004  00000+0  62348-4 0  9992
2 29228  69.9309 272.1825 0006977 273.2712  86.7656 15.13315244106511
ARIRANG-2 (KOMPSAT-2)   
1 29268U 06031A   26194.26131056  .00000063  00000+0  20315-4 0  9996
2 29268  97.8311  17.4474 0014446 357.0497 108.3077 14.64674718 65295
LAPAN-TUBSAT            
1 29709U 07001A   26194.24660701  .00000297  00000+0  40524-4 0  9999
2 29709  98.1350 194.0593 0013621  99.2179 261.0577 14.85976842 55020
HAIYANG-1B              
1 31113U 07010A   26193.94530563  .00000033  00000+0  28228-4 0  9994
2 31113  98.3513 174.7935 0014582 122.0038 238.2565 14.31032985  4328
COSMO-SKYMED 1          
1 31598U 07023A   26194.26724916  .00001352  00000+0  12205-3 0  9990
2 31598  97.8844  26.3437 0001260 103.3433 256.7929 14.97213794 33697
TERRASAR-X              
1 31698U 07026A   26188.47915537  .00000240  00000+0  14624-4 0  9994
2 31698  97.4461 195.8972 0001878  86.9540 273.1909 15.19153986 56300
WORLDVIEW-1 (WV-1)      
1 32060U 07041A   26194.28601410  .00003525  00000+0  14611-3 0  9997
2 32060  97.3901 313.6626 0001348 215.1464 144.9685 15.24545847 46853
YAOGAN-3                
1 32289U 07055A   26194.30340229  .00001707  00000+0  17883-3 0  9990
2 32289  97.8149 223.9228 0001612  82.2494 277.8907 14.90878059  9764
COSMO-SKYMED 2          
1 32376U 07059A   26194.28761398  .00000202  00000+0  31964-4 0  9998
2 32376  97.8892  17.5078 0001426  93.8494 266.2883 14.82149633  5870
RADARSAT-2              
1 32382U 07061A   26194.27688917  .00000262  00000+0  11833-3 0  9990
2 32382  98.5781 200.8367 0001336  83.7691 276.3643 14.29983718969682
CARTOSAT-2A             
1 32783U 08021A   26194.29190575  .00000311  00000+0  48552-4 0  9996
2 32783  97.7626 242.1076 0012622  32.9312 327.2684 14.79274638982661
HUANJING 1A (HJ-1A)     
1 33320U 08041A   26194.26024049  .00001351  00000+0  16771-3 0  9997
2 33320  97.6691 179.0925 0020490  55.5703 304.7445 14.84048776962276
HUANJING 1B (HJ-1B)     
1 33321U 08041B   26194.30874164  .00000393  00000+0  53655-4 0  9992
2 33321  97.6527 182.2313 0037902  97.0983 263.4543 14.83362086962282
GEOEYE 1                
1 33331U 08042A   26194.24841418  .00000198  00000+0  46132-4 0  9998
2 33331  98.1328 267.8671 0004078 353.3329   6.7819 14.64648473953960
THEOS                   
1 33396U 08049A   26194.31929985 -.00000243  00000+0 -94156-4 0  9992
2 33396  98.5566 250.7527 0001148  87.5955 272.5354 14.20135746921672
COSMO-SKYMED 3          
1 33412U 08054A   26194.23726373  .00001312  00000+0  91606-4 0  9997
2 33412  97.8253  53.2396 0015682 172.9355 187.2096 15.07102996960863
YAOGAN-4                
1 33446U 08061A   26194.27477789  .00000500  00000+0  67710-4 0  9997
2 33446  97.9304 127.5933 0014004 352.0166   8.0823 14.83249248949532
GOSAT (IBUKI)           
1 33492U 09002A   26194.32031715  .00000338  00000+0  68026-4 0  9995
2 33492  98.0913 305.0769 0001134  91.0437 269.0898 14.67538398935290
DEIMOS-1                
1 35681U 09041A   26194.29953338  .00000132  00000+0  26571-4 0  9991
2 35681  97.7425 350.3993 0002772  94.9950 265.1577 14.75262549910733
